CCSDS_OMM_VERS = 2.0
CREATION_DATE  = 
ORIGINATOR     = 

OBJECT_NAME    = STARLINK-35820
OBJECT_ID      = 2025-270K
CENTER_NAME    = EARTH
REF_FRAME      = TEME
TIME_SYSTEM    = UTC
MEAN_ELEMENT_THEORY = SGP/SGP4

EPOCH          = 2025-12-11T04:00:01.998720
MEAN_MOTION    = 15.50628126
ECCENTRICITY   = .0001896
INCLINATION    = 42.9995
RA_OF_ASC_NODE = 201.8940
ARG_OF_PERICENTER = 259.7280
MEAN_ANOMALY   = 353.3990

EPHEMERIS_TYPE = 0
CLASSIFICATION_TYPE = U
NORAD_CAT_ID   = 66597
ELEMENT_SET_NO = 999
REV_AT_EPOCH   = 425
BSTAR          = -.19776E-2
MEAN_MOTION_DOT = -.114879E-2
MEAN_MOTION_DDOT = 0

CCSDS_OMM_VERS = 2.0
CREATION_DATE  = 
ORIGINATOR     = 

OBJECT_NAME    = STARLINK-35981
OBJECT_ID      = 2025-270L
CENTER_NAME    = EARTH
REF_FRAME      = TEME
TIME_SYSTEM    = UTC
MEAN_ELEMENT_THEORY = SGP/SGP4

EPOCH          = 2025-12-11T04:00:01.998720
MEAN_MOTION    = 15.50652187
ECCENTRICITY   = .0001658
INCLINATION    = 42.9998
RA_OF_ASC_NODE = 201.8892
ARG_OF_PERICENTER = 247.0247
MEAN_ANOMALY   = 7.9870

EPHEMERIS_TYPE = 0
CLASSIFICATION_TYPE = U
NORAD_CAT_ID   = 66598
ELEMENT_SET_NO = 999
REV_AT_EPOCH   = 398
BSTAR          = -.21519E-2
MEAN_MOTION_DOT = -.124918E-2
MEAN_MOTION_DDOT = 0

CCSDS_OMM_VERS = 2.0
CREATION_DATE  = 
ORIGINATOR     = 

OBJECT_NAME    = STARLINK-35930
OBJECT_ID      = 2025-270M
CENTER_NAME    = EARTH
REF_FRAME      = TEME
TIME_SYSTEM    = UTC
MEAN_ELEMENT_THEORY = SGP/SGP4

EPOCH          = 2025-12-11T04:00:01.998720
MEAN_MOTION    = 15.50600305
ECCENTRICITY   = .0000944
INCLINATION    = 42.9995
RA_OF_ASC_NODE = 201.8845
ARG_OF_PERICENTER = 314.8441
MEAN_ANOMALY   = 302.2480

EPHEMERIS_TYPE = 0
CLASSIFICATION_TYPE = U
NORAD_CAT_ID   = 66599
ELEMENT_SET_NO = 999
REV_AT_EPOCH   = 414
BSTAR          = -.45917E-2
MEAN_MOTION_DOT = -.261114E-2
MEAN_MOTION_DDOT = 0

CCSDS_OMM_VERS = 2.0
CREATION_DATE  = 
ORIGINATOR     = 

OBJECT_NAME    = STARLINK-35980
OBJECT_ID      = 2025-270N
CENTER_NAME    = EARTH
REF_FRAME      = TEME
TIME_SYSTEM    = UTC
MEAN_ELEMENT_THEORY = SGP/SGP4

EPOCH          = 2025-12-11T04:00:01.998720
MEAN_MOTION    = 15.50622135
ECCENTRICITY   = .0002366
INCLINATION    = 42.9997
RA_OF_ASC_NODE = 201.8802
ARG_OF_PERICENTER = 262.2650
MEAN_ANOMALY   = 356.6128

EPHEMERIS_TYPE = 0
CLASSIFICATION_TYPE = U
NORAD_CAT_ID   = 66600
ELEMENT_SET_NO = 999
REV_AT_EPOCH   = 404
BSTAR          = -.18231E-2
MEAN_MOTION_DOT = -.106033E-2
MEAN_MOTION_DDOT = 0

CCSDS_OMM_VERS = 2.0
CREATION_DATE  = 
ORIGINATOR     = 

OBJECT_NAME    = STARLINK-35978
OBJECT_ID      = 2025-270P
CENTER_NAME    = EARTH
REF_FRAME      = TEME
TIME_SYSTEM    = UTC
MEAN_ELEMENT_THEORY = SGP/SGP4

EPOCH          = 2025-12-11T04:00:01.998720
MEAN_MOTION    = 15.50629839
ECCENTRICITY   = .0001985
INCLINATION    = 42.9998
RA_OF_ASC_NODE = 201.8750
ARG_OF_PERICENTER = 258.5891
MEAN_ANOMALY   = 2.2073

EPHEMERIS_TYPE = 0
CLASSIFICATION_TYPE = U
NORAD_CAT_ID   = 66601
ELEMENT_SET_NO = 999
REV_AT_EPOCH   = 398
BSTAR          = -.20263E-2
MEAN_MOTION_DOT = -.117668E-2
MEAN_MOTION_DDOT = 0

CCSDS_OMM_VERS = 2.0
CREATION_DATE  = 
ORIGINATOR     = 

OBJECT_NAME    = STARLINK-36050
OBJECT_ID      = 2025-270Q
CENTER_NAME    = EARTH
REF_FRAME      = TEME
TIME_SYSTEM    = UTC
MEAN_ELEMENT_THEORY = SGP/SGP4

EPOCH          = 2025-12-11T04:00:01.998720
MEAN_MOTION    = 15.50701321
ECCENTRICITY   = .000189
INCLINATION    = 42.9998
RA_OF_ASC_NODE = 201.8710
ARG_OF_PERICENTER = 258.6393
MEAN_ANOMALY   = 4.0533

EPHEMERIS_TYPE = 0
CLASSIFICATION_TYPE = U
NORAD_CAT_ID   = 66602
ELEMENT_SET_NO = 999
REV_AT_EPOCH   = 404
BSTAR          = -.57707E-2
MEAN_MOTION_DOT = -.326594E-2
MEAN_MOTION_DDOT = 0

CCSDS_OMM_VERS = 2.0
CREATION_DATE  = 
ORIGINATOR     = 

OBJECT_NAME    = STARLINK-36048
OBJECT_ID      = 2025-270R
CENTER_NAME    = EARTH
REF_FRAME      = TEME
TIME_SYSTEM    = UTC
MEAN_ELEMENT_THEORY = SGP/SGP4

EPOCH          = 2025-12-11T04:00:01.998720
MEAN_MOTION    = 15.50638019
ECCENTRICITY   = .0001778
INCLINATION    = 42.9996
RA_OF_ASC_NODE = 201.8660
ARG_OF_PERICENTER = 241.7706
MEAN_ANOMALY   = 22.8148

EPHEMERIS_TYPE = 0
CLASSIFICATION_TYPE = U
NORAD_CAT_ID   = 66603
ELEMENT_SET_NO = 999
REV_AT_EPOCH   = 404
BSTAR          = -.16268E-2
MEAN_MOTION_DOT = -.94834E-3
MEAN_MOTION_DDOT = 0

CCSDS_OMM_VERS = 2.0
CREATION_DATE  = 
ORIGINATOR     = 

OBJECT_NAME    = STARLINK-35977
OBJECT_ID      = 2025-270S
CENTER_NAME    = EARTH
REF_FRAME      = TEME
TIME_SYSTEM    = UTC
MEAN_ELEMENT_THEORY = SGP/SGP4

EPOCH          = 2025-12-11T04:00:01.998720
MEAN_MOTION    = 15.50642607
ECCENTRICITY   = .0001705
INCLINATION    = 42.9996
RA_OF_ASC_NODE = 201.8610
ARG_OF_PERICENTER = 243.9885
MEAN_ANOMALY   = 22.5149

EPHEMERIS_TYPE = 0
CLASSIFICATION_TYPE = U
NORAD_CAT_ID   = 66604
ELEMENT_SET_NO = 999
REV_AT_EPOCH   = 414
BSTAR          = -.17542E-2
MEAN_MOTION_DOT = -.102154E-2
MEAN_MOTION_DDOT = 0

CCSDS_OMM_VERS = 2.0
CREATION_DATE  = 
ORIGINATOR     = 

OBJECT_NAME    = STARLINK-36052
OBJECT_ID      = 2025-270T
CENTER_NAME    = EARTH
REF_FRAME      = TEME
TIME_SYSTEM    = UTC
MEAN_ELEMENT_THEORY = SGP/SGP4

EPOCH          = 2025-12-11T04:00:01.998720
MEAN_MOTION    = 15.50626119
ECCENTRICITY   = .0002023
INCLINATION    = 42.9996
RA_OF_ASC_NODE = 201.8557
ARG_OF_PERICENTER = 258.0333
MEAN_ANOMALY   = 10.4309

EPHEMERIS_TYPE = 0
CLASSIFICATION_TYPE = U
NORAD_CAT_ID   = 66605
ELEMENT_SET_NO = 999
REV_AT_EPOCH   = 414
BSTAR          = -.1908E-2
MEAN_MOTION_DOT = -.110895E-2
MEAN_MOTION_DDOT = 0

CCSDS_OMM_VERS = 2.0
CREATION_DATE  = 
ORIGINATOR     = 

OBJECT_NAME    = STARLINK-36063
OBJECT_ID      = 2025-270U
CENTER_NAME    = EARTH
REF_FRAME      = TEME
TIME_SYSTEM    = UTC
MEAN_ELEMENT_THEORY = SGP/SGP4

EPOCH          = 2025-12-11T04:00:01.998720
MEAN_MOTION    = 15.50647196
ECCENTRICITY   = .0001682
INCLINATION    = 42.9998
RA_OF_ASC_NODE = 201.8458
ARG_OF_PERICENTER = 244.7792
MEAN_ANOMALY   = 27.4794

EPHEMERIS_TYPE = 0
CLASSIFICATION_TYPE = U
NORAD_CAT_ID   = 66606
ELEMENT_SET_NO = 999
REV_AT_EPOCH   = 414
BSTAR          = -.19137E-2
MEAN_MOTION_DOT = -.111303E-2
MEAN_MOTION_DDOT = 0

CCSDS_OMM_VERS = 2.0
CREATION_DATE  = 
ORIGINATOR     = 

OBJECT_NAME    = STARLINK-35993
OBJECT_ID      = 2025-270V
CENTER_NAME    = EARTH
REF_FRAME      = TEME
TIME_SYSTEM    = UTC
MEAN_ELEMENT_THEORY = SGP/SGP4

EPOCH          = 2025-12-11T04:00:01.998720
MEAN_MOTION    = 15.50631657
ECCENTRICITY   = .0001959
INCLINATION    = 42.9996
RA_OF_ASC_NODE = 201.8512
ARG_OF_PERICENTER = 257.9445
MEAN_ANOMALY   = 12.4351

EPHEMERIS_TYPE = 0
CLASSIFICATION_TYPE = U
NORAD_CAT_ID   = 66607
ELEMENT_SET_NO = 999
REV_AT_EPOCH   = 404
BSTAR          = -.20905E-2
MEAN_MOTION_DOT = -.121333E-2
MEAN_MOTION_DDOT = 0

CCSDS_OMM_VERS = 2.0
CREATION_DATE  = 
ORIGINATOR     = 

OBJECT_NAME    = STARLINK-36036
OBJECT_ID      = 2025-270W
CENTER_NAME    = EARTH
REF_FRAME      = TEME
TIME_SYSTEM    = UTC
MEAN_ELEMENT_THEORY = SGP/SGP4

EPOCH          = 2025-12-11T04:00:01.998720
MEAN_MOTION    = 15.50632682
ECCENTRICITY   = .000174
INCLINATION    = 42.9998
RA_OF_ASC_NODE = 201.8420
ARG_OF_PERICENTER = 244.3963
MEAN_ANOMALY   = 29.7762

EPHEMERIS_TYPE = 0
CLASSIFICATION_TYPE = U
NORAD_CAT_ID   = 66608
ELEMENT_SET_NO = 999
REV_AT_EPOCH   = 398
BSTAR          = -.15054E-2
MEAN_MOTION_DOT = -.87839E-3
MEAN_MOTION_DDOT = 0

