STARLINK-35820          
1 66597U 25270K   25345.16668980 -.00114879  00000+0 -19776-2 0  9995
2 66597  42.9995 201.8940 0001896 259.7280 353.3990 15.50628126  4253
STARLINK-35981          
1 66598U 25270L   25345.16668980 -.00124918  00000+0 -21519-2 0  9999
2 66598  42.9998 201.8892 0001658 247.0247   7.9870 15.50652187  3984
STARLINK-35930          
1 66599U 25270M   25345.16668980 -.00261114  00000+0 -45917-2 0  9998
2 66599  42.9995 201.8845 0000944 314.8441 302.2480 15.50600305  4148
STARLINK-35980          
1 66600U 25270N   25345.16668980 -.00106033  00000+0 -18231-2 0  9998
2 66600  42.9997 201.8802 0002366 262.2650 356.6128 15.50622135  4040
STARLINK-35978          
1 66601U 25270P   25345.16668980 -.00117668  00000+0 -20263-2 0  9993
2 66601  42.9998 201.8750 0001985 258.5891   2.2073 15.50629839  3988
STARLINK-36050          
1 66602U 25270Q   25345.16668980 -.00326594  00000+0 -57707-2 0  9997
2 66602  42.9998 201.8710 0001890 258.6393   4.0533 15.50701321  4044
STARLINK-36048          
1 66603U 25270R   25345.16668980 -.00094834  00000+0 -16268-2 0  9994
2 66603  42.9996 201.8660 0001778 241.7706  22.8148 15.50638019  4046
STARLINK-35977          
1 66604U 25270S   25345.16668980 -.00102154  00000+0 -17542-2 0  9996
2 66604  42.9996 201.8610 0001705 243.9885  22.5149 15.50642607  4141
STARLINK-36052          
1 66605U 25270T   25345.16668980 -.00110895  00000+0 -19080-2 0  9997
2 66605  42.9996 201.8557 0002023 258.0333  10.4309 15.50626119  4145
STARLINK-36063          
1 66606U 25270U   25345.16668980 -.00111303  00000+0 -19137-2 0  9996
2 66606  42.9998 201.8458 0001682 244.7792  27.4794 15.50647196  4143
STARLINK-35993          
1 66607U 25270V   25345.16668980 -.00121333  00000+0 -20905-2 0  9996
2 66607  42.9996 201.8512 0001959 257.9445  12.4351 15.50631657  4048
STARLINK-36036          
1 66608U 25270W   25345.16668980 -.00087839  00000+0 -15054-2 0  9998
2 66608  42.9998 201.8420 0001740 244.3963  29.7762 15.50632682  3980
